ELECTRON R/B            
1 67230U 25307C   25355.36249005  .00071881  81069-5  20248-3 0  9997
2 67230  41.9820 123.1026 0261408 268.1410  88.9482 15.55087105    19
SPACEMOBILE-006         
1 67232U 25309A   25360.75210442  .00001165  00000+0  72651-4 0  9997
2 67232  53.0002  40.8851 0010477 329.2446  30.7932 15.17699903   405
LVM3 R/B                
1 67233U 25309B   25360.74928094  .00001231  00000+0  72627-4 0  9993
2 67233  52.9350  40.7629 0010474 355.6984   4.3917 15.19340101   404
2025-310A               
1 67234U 25310A   25363.31529613  .00002994  00000+0  13914-3 0  9996
2 67234  97.9657   8.0673 0151612  68.9370 292.7996 15.11153747   571
SL-4 R/B                
1 67235U 25310B   25364.94554285  .00131108  22082-5  30581-3 0  9999
2 67235  97.9679  10.0184 0299672  57.0996 305.8706 15.50179935   832
FENGYUN 4C              
1 67246U 25312A   25360.90857406  .00039214  41525-6  21251-2 0  9998
2 67246  28.4641 334.3215 7309751 179.7824 181.1675  2.27841578    17
CZ-3B R/B               
1 67247U 25312B   26002.15664140  .00100128 -10344-6  38758-3 0  9991
2 67247  28.4383 331.8290 7236594 183.0197 167.3066  2.39802442   156
TIANHUI 7               
1 67300U 25314A   25365.92372150  .00003476  00000+0  14121-3 0  9992
2 67300  97.4225  78.1262 0001255 100.3877 259.7502 15.25236623   287
CZ-4B R/B               
1 67301U 25314B   25365.75235903  .00099613  48706-5  52684-3 0  9993
2 67301  97.3775  78.0261 0149992  13.3608 347.1555 15.66057522   218
2025-315A               
1 67302U 25315A   25365.60681806  .00007587  00000+0  11168-2 0  9995
2 67302  19.4941 100.4624 7295759 180.0324 168.0161  2.27863390    22
CZ-7A R/B               
1 67303U 25315B   25365.17922199  .00041123  76302-6  12201-2 0  9999
2 67303  19.7725 100.7388 7234083 178.7114 185.5568  2.38363488    20
